[{"OBJECT_NAME":"STARLINK-31069","OBJECT_ID":"2023-200U","EPOCH":"2026-03-09T22:00:01.999584","MEAN_MOTION":15.26757578,"ECCENTRICITY":0.00014389,"INCLINATION":42.9995,"RA_OF_ASC_NODE":167.4364,"ARG_OF_PERICENTER":264.9451,"MEAN_ANOMALY":218.2454,"EPHEMERIS_TYPE":0,"CLASSIFICATION_TYPE":"U","NORAD_CAT_ID":58607,"ELEMENT_SET_NO":999,"REV_AT_EPOCH":563,"BSTAR":-0.00040465945,"MEAN_MOTION_DOT":-0.00011104,"MEAN_MOTION_DDOT":0},{"OBJECT_NAME":"FLOCK 4G-4","OBJECT_ID":"2025-009BC","EPOCH":"2026-03-09T18:04:48.344448","MEAN_MOTION":15.26803327,"ECCENTRICITY":0.00015979,"INCLINATION":97.3994,"RA_OF_ASC_NODE":150.7963,"ARG_OF_PERICENTER":343.4316,"MEAN_ANOMALY":16.687,"EPHEMERIS_TYPE":0,"CLASSIFICATION_TYPE":"U","NORAD_CAT_ID":62659,"ELEMENT_SET_NO":999,"REV_AT_EPOCH":12132,"BSTAR":0.00045294179,"MEAN_MOTION_DOT":0.00011866,"MEAN_MOTION_DDOT":0}]
